{"version": 0.6, "generator": "Overpass API 0.7.61.4 df4c946a", "osm3s": {"timestamp_osm_base": "2023-07-29T20:41:15Z", "copyright": "The data included in this document is from www.openstreetmap.org. The data is made available under ODbL."}, "elements": [{"type": "node", "id": 660921, "lat": 59.9110251, "lon": 10.7531379, "tags": {"alt_name": "Oslo sentralstasjon", "name": "Oslo S", "name:de": "Oslo Hauptbahnhof", "name:en": "Oslo Central Station", "name:et": "Oslo keskraudteejaam", "name:fi": "Oslon keskusrautatieasema", "name:fr": "Gare centrale d'Oslo", "name:no": "Oslo S", "name:zh": "\u5965\u65af\u9646\u7ad9", "official_name": "Oslo sentralstasjon", "operator": "Bane NOR", "public_transport": "station", "railway": "station", "railway:traffic_mode": "mixed", "ref": "03010010", "route_ref": "300;400;440;450;460;500;550;560;FT;R01;R20;R21;R41", "start_date": "1854-09-01", "toilets:wheelchair": "yes", "uic_ref": "7600001", "wheelchair": "yes", "wikidata": "Q1410317", "wikipedia": "no:Oslo Sentralstasjon"}}, {"type": "node", "id": 240488929, "lat": 59.9224287, "lon": 10.6784991, "tags": {"name": "Sk\u00f8yen", "official_name": "Sk\u00f8yen stasjon", "public_transport": "station", "railway": "station", "railway:traffic_mode": "passenger", "ref": "03012500", "route_ref": "300;400;440;450;460;500;550;560;FT;R20", "start_date": "1872-10-07", "toilets:wheelchair": "yes", "wheelchair": "yes"}}, {"type": "node", "id": 2011317766, "lat": 59.9083093, "lon": 10.8186944, "tags": {"name": "Bryn", "official_name": "Bryn stasjon", "railway": "station", "railway:traffic_mode": "passenger", "ref": "03011460", "route_ref": "400", "start_date": "1854-09-01", "wheelchair": "no", "wikidata": "Q764143"}}, {"type": "node", "id": 5218231660, "lat": 59.9155792, "lon": 10.7319265, "tags": {"name": "Nationaltheatret", "name:de": "Nationaltheater", "name:en": "National Theatre", "network": "Ruter", "operator": "Sporveien T-banen", "public_transport": "station", "railway": "station", "station": "subway", "subway": "yes", "wikidata": "Q13218297"}}, {"type": "node", "id": 5218231661, "lat": 59.9372195, "lon": 10.6841674, "tags": {"name": "Smestad", "network": "Ruter", "operator": "Sporveien T-banen", "public_transport": "station", "railway": "station", "station": "subway", "subway": "yes", "wheelchair": "yes", "wikidata": "Q7544475"}}, {"type": "node", "id": 5218231662, "lat": 59.9437046, "lon": 10.7208514, "tags": {"name": "Forskningsparken", "network": "Ruter", "operator": "Sporveien T-banen", "public_transport": "station", "railway": "station", "station": "subway", "subway": "yes", "wheelchair": "yes", "wikidata": "Q5470604"}}, {"type": "node", "id": 5218231663, "lat": 59.9401338, "lon": 10.716072, "tags": {"name": "Blindern", "network": "Ruter", "old_name": "Blindernveien", "operator": "Sporveien T-banen", "public_transport": "station", "railway": "station", "station": "subway", "subway": "yes", "wheelchair": "yes", "wikidata": "Q4926692"}}, {"type": "node", "id": 5218231664, "lat": 59.9371663, "lon": 10.78183, "tags": {"name": "Sinsen", "network": "Ruter", "operator": "Sporveien T-banen", "public_transport": "station", "railway": "station", "ref": "301210001", "station": "subway", "subway": "yes"}}, {"type": "node", "id": 5218231665, "lat": 59.9127909, "lon": 10.7601469, "tags": {"name": "Gr\u00f8nland", "network": "Ruter", "operator": "Sporveien T-banen", "public_transport": "station", "railway": "station", "station": "subway", "subway": "yes", "wikidata": "Q5612886"}}, {"type": "node", "id": 5218231666, "lat": 59.9467461, "lon": 10.7320518, "tags": {"name": "Ullev\u00e5l stadion", "network": "Ruter", "operator": "Sporveien T-banen", "public_transport": "station", "railway": "station", "station": "subway", "subway": "yes", "wheelchair": "yes", "wikidata": "Q7879176"}}, {"type": "node", "id": 5218231667, "lat": 59.9496515, "lon": 10.7642971, "tags": {"name": "Nydalen", "network": "Ruter", "operator": "Sporveien T-banen", "public_transport": "station", "railway": "station", "station": "subway", "subway": "yes", "wikidata": "Q7071036"}}, {"type": "node", "id": 5218231668, "lat": 59.9122056, "lon": 10.75169, "tags": {"name": "Jernbanetorget", "network": "Ruter", "operator": "Sporveien T-banen", "public_transport": "station", "railway": "station", "station": "subway", "subway": "yes", "wikidata": "Q6514464"}}, {"type": "node", "id": 5218231669, "lat": 59.944587, "lon": 10.7785491, "tags": {"name": "Storo", "network": "Ruter", "operator": "Sporveien T-banen", "public_transport": "station", "railway": "station", "station": "subway", "subway": "yes"}}, {"type": "node", "id": 5218231670, "lat": 59.9127328, "lon": 10.801005, "tags": {"name": "Helsfyr", "network": "Ruter", "operator": "Sporveien T-banen", "public_transport": "station", "railway": "station", "station": "subway", "subway": "yes", "train": "yes", "wheelchair": "no", "wikidata": "Q5710410"}}, {"type": "node", "id": 5218231672, "lat": 59.9346211, "lon": 10.695638, "tags": {"name": "Borgen", "network": "Ruter", "operator": "Sporveien T-banen", "public_transport": "station", "railway": "station", "station": "subway", "subway": "yes", "wheelchair": "yes", "wikidata": "Q4945032"}}, {"type": "node", "id": 5218231673, "lat": 59.9135655, "lon": 10.7433418, "tags": {"name": "Stortinget", "network": "Ruter", "operator": "Sporveien T-banen", "public_transport": "station", "railway": "station", "station": "subway", "subway": "yes", "wikidata": "Q6515974"}}, {"type": "node", "id": 5359891618, "lat": 59.8956702, "lon": 10.8047288, "tags": {"name": "Ryen", "network": "Ruter", "operator": "Sporveien T-banen", "railway": "station", "station": "subway", "wikidata": "Q7385021"}}, {"type": "node", "id": 5359891619, "lat": 59.8980022, "lon": 10.8127548, "tags": {"name": "Manglerud", "network": "Ruter", "operator": "Sporveien T-banen", "public_transport": "station", "railway": "station", "station": "subway", "train": "yes", "wikidata": "Q6749064"}}, {"type": "node", "id": 5359891629, "lat": 59.9059078, "lon": 10.8197957, "tags": {"name": "H\u00f8yenhall", "network": "Ruter", "operator": "Sporveien T-banen", "public_transport": "station", "railway": "station", "station": "subway", "train": "yes", "wikidata": "Q5964871"}}, {"type": "node", "id": 5359891692, "lat": 59.9092386, "lon": 10.81193, "tags": {"name": "Brynseng", "network": "Ruter", "operator": "Sporveien T-banen", "public_transport": "station", "railway": "station", "station": "subway", "subway": "yes", "wheelchair": "yes", "wikidata": "Q6514337"}}, {"type": "node", "id": 5480418907, "lat": 59.9298342, "lon": 10.7903109, "tags": {"name": "L\u00f8ren", "operator": "Sporveien T-banen", "public_transport": "station", "railway": "station", "station": "subway", "subway": "yes", "wikidata": "Q17199031"}}, {"type": "node", "id": 5480418908, "lat": 59.9243612, "lon": 10.794713, "tags": {"name": "Hasle", "operator": "Sporveien T-banen", "public_transport": "station", "railway": "station", "station": "subway", "subway": "yes", "wheelchair": "yes", "wikidata": "Q5679293"}}, {"type": "node", "id": 5480418909, "lat": 59.9282615, "lon": 10.8062778, "tags": {"name": "\u00d8kern", "operator": "Sporveien T-banen", "public_transport": "station", "railway": "station", "station": "subway", "subway": "yes", "wikidata": "Q8079207"}}, {"type": "node", "id": 5487374937, "lat": 59.9157566, "lon": 10.7757946, "tags": {"name": "T\u00f8yen", "operator": "Sporveien T-banen", "public_transport": "station", "railway": "station", "station": "subway", "subway": "yes", "wikidata": "Q887532"}}, {"type": "node", "id": 5720557901, "lat": 59.9418161, "lon": 10.7804364, "tags": {"building:year": "1900", "name": "Grefsen", "official_name": "Grefsen stasjon", "public_transport": "station", "railway": "station", "railway:traffic_mode": "passenger", "start_date": "1900-12-20", "wikidata": "Q3603459"}}, {"type": "node", "id": 6184808734, "lat": 59.9137698, "lon": 10.7877106, "tags": {"name": "Ensj\u00f8", "network": "Ruter", "operator": "Sporveien T-banen", "public_transport": "station", "railway": "station", "station": "subway", "subway": "yes"}}, {"type": "node", "id": 8444746218, "lat": 59.925774, "lon": 10.7796115, "tags": {"name": "Carl Berners plass", "network": "Ruter", "operator": "Sporveien T-banen", "public_transport": "station", "railway": "station", "station": "subway", "subway": "yes", "wheelchair": "yes", "wikidata": "Q1772284", "wikipedia": "no:Carl Berners plass stasjon"}}, {"type": "node", "id": 9579541327, "lat": 59.9288612, "lon": 10.6483205, "tags": {"name": "\u00c5sjordet", "network": "Ruter", "operator": "Sporveien T-banen", "public_transport": "station", "railway": "station", "station": "subway", "subway": "yes", "wikidata": "Q8077251"}}, {"type": "node", "id": 9579541520, "lat": 59.9314893, "lon": 10.6559774, "tags": {"name": "Ullern\u00e5sen", "network": "Ruter", "operator": "Sporveien T-banen", "public_transport": "station", "railway": "station", "station": "subway", "subway": "yes", "wheelchair": "yes", "wikidata": "Q7879163"}}, {"type": "node", "id": 9579541560, "lat": 59.9348374, "lon": 10.6664078, "tags": {"name": "Montebello", "network": "Ruter", "operator": "Sporveien T-banen", "public_transport": "station", "railway": "station", "station": "subway", "subway": "yes", "wikidata": "Q6905007"}}]}